[{"OBJECT_NAME":"SHIYAN-30 04","OBJECT_ID":"2026-048B","EPOCH":"2026-03-21T16:28:22.641888","MEAN_MOTION":14.91697209,"ECCENTRICITY":0.000242,"INCLINATION":34.9916,"RA_OF_ASC_NODE":72.1613,"ARG_OF_PERICENTER":305.7828,"MEAN_ANOMALY":54.2651,"EPHEMERIS_TYPE":0,"CLASSIFICATION_TYPE":"U","NORAD_CAT_ID":68140,"ELEMENT_SET_NO":999,"REV_AT_EPOCH":129,"BSTAR":0.00023322,"MEAN_MOTION_DOT":2.364e-5,"MEAN_MOTION_DDOT":0},{"OBJECT_NAME":"CZ-2D R/B","OBJECT_ID":"2026-048C","EPOCH":"2026-03-21T09:34:59.190816","MEAN_MOTION":14.95535973,"ECCENTRICITY":0.00149509,"INCLINATION":35.1296,"RA_OF_ASC_NODE":73.8533,"ARG_OF_PERICENTER":67.1345,"MEAN_ANOMALY":293.094,"EPHEMERIS_TYPE":0,"CLASSIFICATION_TYPE":"U","NORAD_CAT_ID":68141,"ELEMENT_SET_NO":999,"REV_AT_EPOCH":125,"BSTAR":0.00013488032,"MEAN_MOTION_DOT":1.495e-5,"MEAN_MOTION_DDOT":0},{"OBJECT_NAME":"STARLINK-36604","OBJECT_ID":"2026-049A","EPOCH":"2026-03-19T13:52:52.185792","MEAN_MOTION":16.01563866,"ECCENTRICITY":5.554e-5,"INCLINATION":97.2797,"RA_OF_ASC_NODE":98.1391,"ARG_OF_PERICENTER":65.4234,"MEAN_ANOMALY":294.7104,"EPHEMERIS_TYPE":0,"CLASSIFICATION_TYPE":"U","NORAD_CAT_ID":68142,"ELEMENT_SET_NO":999,"REV_AT_EPOCH":96,"BSTAR":-0.0010855232,"MEAN_MOTION_DOT":-0.00601426,"MEAN_MOTION_DDOT":0.00012953804},{"OBJECT_NAME":"STARLINK-36995","OBJECT_ID":"2026-049B","EPOCH":"2026-03-19T06:22:43.389408","MEAN_MOTION":16.02629136,"ECCENTRICITY":9.59e-5,"INCLINATION":97.28,"RA_OF_ASC_NODE":97.7985,"ARG_OF_PERICENTER":13.3742,"MEAN_ANOMALY":346.7563,"EPHEMERIS_TYPE":0,"CLASSIFICATION_TYPE":"U","NORAD_CAT_ID":68143,"ELEMENT_SET_NO":999,"REV_AT_EPOCH":91,"BSTAR":-0.00090105,"MEAN_MOTION_DOT":-0.00531426,"MEAN_MOTION_DDOT":0.00010413},{"OBJECT_NAME":"STARLINK-37020","OBJECT_ID":"2026-049C","EPOCH":"2026-03-19T12:20:37.301568","MEAN_MOTION":16.04472428,"ECCENTRICITY":4.674e-5,"INCLINATION":97.2794,"RA_OF_ASC_NODE":98.0724,"ARG_OF_PERICENTER":166.1555,"MEAN_ANOMALY":193.9739,"EPHEMERIS_TYPE":0,"CLASSIFICATION_TYPE":"U","NORAD_CAT_ID":68144,"ELEMENT_SET_NO":999,"REV_AT_EPOCH":95,"BSTAR":0.0015013758,"MEAN_MOTION_DOT":0.00978873,"MEAN_MOTION_DDOT":0.00050884471},{"OBJECT_NAME":"STARLINK-36244","OBJECT_ID":"2026-049D","EPOCH":"2026-03-19T00:20:18.810240","MEAN_MOTION":16.04211622,"ECCENTRICITY":3.95e-5,"INCLINATION":97.2798,"RA_OF_ASC_NODE":97.5283,"ARG_OF_PERICENTER":95.7237,"MEAN_ANOMALY":264.4089,"EPHEMERIS_TYPE":0,"CLASSIFICATION_TYPE":"U","NORAD_CAT_ID":68145,"ELEMENT_SET_NO":999,"REV_AT_EPOCH":87,"BSTAR":-0.00062437,"MEAN_MOTION_DOT":-0.00404794,"MEAN_MOTION_DDOT":6.3915e-5},{"OBJECT_NAME":"STARLINK-36980","OBJECT_ID":"2026-049E","EPOCH":"2026-03-19T13:49:53.120928","MEAN_MOTION":16.02210843,"ECCENTRICITY":4.697e-5,"INCLINATION":97.2792,"RA_OF_ASC_NODE":98.1417,"ARG_OF_PERICENTER":81.7263,"MEAN_ANOMALY":278.407,"EPHEMERIS_TYPE":0,"CLASSIFICATION_TYPE":"U","NORAD_CAT_ID":68146,"ELEMENT_SET_NO":999,"REV_AT_EPOCH":96,"BSTAR":-0.0010788069,"MEAN_MOTION_DOT":-0.00620452,"MEAN_MOTION_DDOT":0.00013835533},{"OBJECT_NAME":"STARLINK-37055","OBJECT_ID":"2026-049F","EPOCH":"2026-03-19T12:21:42.575040","MEAN_MOTION":16.02010555,"ECCENTRICITY":0.0002763,"INCLINATION":97.2798,"RA_OF_ASC_NODE":98.071,"ARG_OF_PERICENTER":38.6438,"MEAN_ANOMALY":321.5038,"EPHEMERIS_TYPE":0,"CLASSIFICATION_TYPE":"U","NORAD_CAT_ID":68147,"ELEMENT_SET_NO":999,"REV_AT_EPOCH":95,"BSTAR":-0.00062842,"MEAN_MOTION_DOT":-0.00358165,"MEAN_MOTION_DDOT":4.958e-5},{"OBJECT_NAME":"STARLINK-36981","OBJECT_ID":"2026-049G","EPOCH":"2026-03-19T12:18:54.316224","MEAN_MOTION":16.00484791,"ECCENTRICITY":0.0009222,"INCLINATION":97.2791,"RA_OF_ASC_NODE":98.074,"ARG_OF_PERICENTER":123.9534,"MEAN_ANOMALY":236.2623,"EPHEMERIS_TYPE":0,"CLASSIFICATION_TYPE":"U","NORAD_CAT_ID":68148,"ELEMENT_SET_NO":999,"REV_AT_EPOCH":95,"BSTAR":-0.0087998,"MEAN_MOTION_DOT":-0.04741621,"MEAN_MOTION_DDOT":0.0076603},{"OBJECT_NAME":"STARLINK-36992","OBJECT_ID":"2026-049H","EPOCH":"2026-03-19T12:18:40.975200","MEAN_MOTION":16.03449672,"ECCENTRICITY":0.00058926,"INCLINATION":97.2794,"RA_OF_ASC_NODE":98.0748,"ARG_OF_PERICENTER":16.2793,"MEAN_ANOMALY":343.8675,"EPHEMERIS_TYPE":0,"CLASSIFICATION_TYPE":"U","NORAD_CAT_ID":68149,"ELEMENT_SET_NO":999,"REV_AT_EPOCH":95,"BSTAR":0.00090936275,"MEAN_MOTION_DOT":0.0056212,"MEAN_MOTION_DDOT":0.00014894956},{"OBJECT_NAME":"STARLINK-37060","OBJECT_ID":"2026-049J","EPOCH":"2026-03-19T12:18:16.376256","MEAN_MOTION":16.03397341,"ECCENTRICITY":0.000386,"INCLINATION":97.279,"RA_OF_ASC_NODE":98.0753,"ARG_OF_PERICENTER":339.2818,"MEAN_ANOMALY":20.8305,"EPHEMERIS_TYPE":0,"CLASSIFICATION_TYPE":"U","NORAD_CAT_ID":68150,"ELEMENT_SET_NO":999,"REV_AT_EPOCH":95,"BSTAR":0.00083559,"MEAN_MOTION_DOT":0.00514433,"MEAN_MOTION_DDOT":0.00012358},{"OBJECT_NAME":"STARLINK-37073","OBJECT_ID":"2026-049K","EPOCH":"2026-03-19T12:17:46.658976","MEAN_MOTION":16.03149567,"ECCENTRICITY":5.83e-5,"INCLINATION":97.279,"RA_OF_ASC_NODE":98.075,"ARG_OF_PERICENTER":352.5845,"MEAN_ANOMALY":7.5426,"EPHEMERIS_TYPE":0,"CLASSIFICATION_TYPE":"U","NORAD_CAT_ID":68151,"ELEMENT_SET_NO":999,"REV_AT_EPOCH":95,"BSTAR":-0.00081365,"MEAN_MOTION_DOT":-0.00494902,"MEAN_MOTION_DDOT":9.1744e-5},{"OBJECT_NAME":"STARLINK-37049","OBJECT_ID":"2026-049L","EPOCH":"2026-03-19T00:18:24.647328","MEAN_MOTION":16.04917116,"ECCENTRICITY":4.74e-5,"INCLINATION":97.2794,"RA_OF_ASC_NODE":97.5302,"ARG_OF_PERICENTER":89.6838,"MEAN_ANOMALY":270.4498,"EPHEMERIS_TYPE":0,"CLASSIFICATION_TYPE":"U","NORAD_CAT_ID":68152,"ELEMENT_SET_NO":999,"REV_AT_EPOCH":87,"BSTAR":-0.00061657,"MEAN_MOTION_DOT":-0.00417006,"MEAN_MOTION_DDOT":6.8149e-5},{"OBJECT_NAME":"STARLINK-37072","OBJECT_ID":"2026-049M","EPOCH":"2026-03-19T12:16:50.098080","MEAN_MOTION":16.0350625,"ECCENTRICITY":0.0002614,"INCLINATION":97.2788,"RA_OF_ASC_NODE":98.076,"ARG_OF_PERICENTER":12.6003,"MEAN_ANOMALY":347.5342,"EPHEMERIS_TYPE":0,"CLASSIFICATION_TYPE":"U","NORAD_CAT_ID":68153,"ELEMENT_SET_NO":999,"REV_AT_EPOCH":95,"BSTAR":-0.00025962,"MEAN_MOTION_DOT":-0.00162025,"MEAN_MOTION_DDOT":1.2479e-5},{"OBJECT_NAME":"STARLINK-36241","OBJECT_ID":"2026-049N","EPOCH":"2026-03-19T12:15:49.006368","MEAN_MOTION":16.03790974,"ECCENTRICITY":0.0002702,"INCLINATION":97.2787,"RA_OF_ASC_NODE":98.0764,"ARG_OF_PERICENTER":13.124,"MEAN_ANOMALY":347.011,"EPHEMERIS_TYPE":0,"CLASSIFICATION_TYPE":"U","NORAD_CAT_ID":68154,"ELEMENT_SET_NO":999,"REV_AT_EPOCH":95,"BSTAR":-0.00021485,"MEAN_MOTION_DOT":-0.00136495,"MEAN_MOTION_DDOT":9.5698e-6},{"OBJECT_NAME":"STARLINK-37048","OBJECT_ID":"2026-049P","EPOCH":"2026-03-19T07:45:22.656096","MEAN_MOTION":16.0490738,"ECCENTRICITY":0.0002251,"INCLINATION":97.2786,"RA_OF_ASC_NODE":97.8732,"ARG_OF_PERICENTER":149.8692,"MEAN_ANOMALY":210.2719,"EPHEMERIS_TYPE":0,"CLASSIFICATION_TYPE":"U","NORAD_CAT_ID":68155,"ELEMENT_SET_NO":999,"REV_AT_EPOCH":92,"BSTAR":0.00015061,"MEAN_MOTION_DOT":0.00101037,"MEAN_MOTION_DDOT":6.6606e-6}]
